OBJECT_NAME,OBJECT_ID,EPOCH,MEAN_MOTION,ECCENTRICITY,INCLINATION,RA_OF_ASC_NODE,ARG_OF_PERICENTER,MEAN_ANOMALY,EPHEMERIS_TYPE,CLASSIFICATION_TYPE,NORAD_CAT_ID,ELEMENT_SET_NO,REV_AT_EPOCH,BSTAR,MEAN_MOTION_DOT,MEAN_MOTION_DDOT
STARLINK-37956,2026-147H,2026-07-19T20:00:01.999008,15.76134997,.000167,97.2844,237.4994,94.6699,174.0235,0,U,69711,999,448,-.19603E-1,-.2652481E-1,0
STARLINK-38043,2026-147J,2026-07-19T12:44:32.213760,15.80904411,.00007084,97.2832,237.1826,37.4260,322.7058,0,U,69712,999,454,.1071925E-2,.211078E-2,0
STARLINK-38020,2026-147K,2026-07-19T20:00:01.999008,15.76694631,.0001661,97.2842,237.5038,88.4743,190.1037,0,U,69713,999,448,-.18188E-1,-.2482977E-1,0
STARLINK-38059,2026-147L,2026-07-19T20:00:01.999008,15.74847092,.0001919,97.2848,237.5045,91.9852,185.3106,0,U,69714,999,448,-.19607E-1,-.2469624E-1,0
STARLINK-38061,2026-147M,2026-07-19T12:41:17.256480,15.80867548,.0000273,97.2822,237.1863,37.1076,323.0211,0,U,69715,999,454,.85280438E-3,.166763E-2,0
STARLINK-38060,2026-147N,2026-07-19T20:15:58.897152,15.80885829,.0001843,97.2823,237.5224,73.2060,286.9410,0,U,69716,999,459,.97973E-3,.192334E-2,0
STARLINK-38040,2026-147P,2026-07-19T20:14:56.162112,15.80828561,.0005469,97.2817,237.5233,55.5484,304.6300,0,U,69717,999,459,.1237E-2,.243845E-2,0
STARLINK-37989,2026-147Q,2026-07-19T20:00:01.999008,15.76731832,.0001728,97.2846,237.5130,94.4706,205.8473,0,U,69718,999,457,-.19182E-1,-.2663565E-1,0
STARLINK-38039,2026-147R,2026-07-19T20:12:44.104032,15.80868607,.0001661,97.2834,237.5245,79.1755,280.9700,0,U,69719,999,459,.97981E-3,.192194E-2,0
STARLINK-38003,2026-147S,2026-07-19T12:35:52.894464,15.80903130,.00007992,97.2827,237.1906,66.6156,293.5196,0,U,69720,999,454,.10795939E-2,.212614E-2,0
STARLINK-38014,2026-147T,2026-07-19T14:05:57.209280,15.80824352,.0001166,97.2834,237.2595,77.6466,282.4933,0,U,69721,999,455,.10874E-2,.213393E-2,0
STARLINK-37915,2026-147U,2026-07-19T14:04:52.291776,15.80823285,.0001351,97.2837,237.2604,84.7068,275.4354,0,U,69722,999,455,.11755E-2,.23117E-2,0
STARLINK-38007,2026-147V,2026-07-19T12:37:09.513120,15.80936762,.00004325,97.2820,237.1890,335.7407,24.3841,0,U,69723,999,454,.13920591E-2,.276666E-2,0
STARLINK-38008,2026-147W,2026-07-19T14:02:42.258912,15.80821510,.0000915,97.2835,237.2635,78.4579,281.6792,0,U,69724,999,455,.10699E-2,.209858E-2,0
STARLINK-38021,2026-147X,2026-07-19T20:06:14.510016,15.80895260,.0001658,97.2812,237.5315,74.8479,285.2972,0,U,69725,999,459,.10795E-2,.212512E-2,0
STARLINK-38015,2026-147Y,2026-07-19T20:17:10.190976,15.75214566,.0001104,97.2856,237.5210,77.5045,282.6343,0,U,69726,999,459,.61052E-3,.92016E-3,0
STARLINK-38010,2026-147Z,2026-07-19T13:24:29.157984,15.75228552,.0000315,97.2826,237.1463,126.2430,233.8864,0,U,69727,999,454,.77807E-3,.117732E-2,0
SXM-11,2026-148A,2026-07-19T17:44:07.103904,1.00270480,.0002054,0.0995,264.9649,185.6525,352.4031,0,U,69728,999,36,0,.7E-7,0
HAIYANG-2E,2026-149A,2026-07-19T17:29:42.962208,13.79314794,.0001615,99.3444,207.5922,88.2436,271.8901,0,U,69737,999,244,-.63069E-6,-.45E-6,0
CZ-4B R/B,2026-149B,2026-07-19T16:03:40.773888,14.30068580,.0197947,99.3218,209.0075,317.1762,41.4142,0,U,69738,999,277,.27774E-4,.3E-6,0
STARLINK-38033,2026-150A,2026-07-19T12:22:32.100384,15.80845988,.00004372,97.2846,39.1269,19.8327,340.2958,0,U,69739,999,400,.54287901E-3,.10525E-2,0
STARLINK-38076,2026-150B,2026-07-19T19:17:35.968128,15.75232556,.0001743,97.2845,39.3452,94.2559,265.8905,0,U,69740,999,404,.11106E-2,.169153E-2,0
STARLINK-38074,2026-150C,2026-07-19T20:00:01.999008,15.75220278,.0000975,97.2848,39.4547,98.7794,248.3239,0,U,69741,999,404,-.66294E-3,-.9801E-3,0
STARLINK-38041,2026-150D,2026-07-19T20:00:01.999008,15.75182306,.0001346,97.2857,39.4322,93.2135,199.9052,0,U,69742,999,404,-.36311E-3,-.53931E-3,0
STARLINK-38087,2026-150E,2026-07-19T20:00:01.999008,15.75234047,.0001025,97.2849,39.4496,99.9049,235.2005,0,U,69743,999,404,-.83547E-3,-.123197E-2,0
STARLINK-38078,2026-150F,2026-07-19T19:51:20.215584,15.80868823,.0001714,97.2839,39.4675,90.8713,269.2752,0,U,69744,999,405,.99889E-3,.196028E-2,0
STARLINK-38047,2026-150G,2026-07-19T20:00:01.999008,15.75232683,.0000606,97.2858,39.4357,91.1007,212.0178,0,U,69745,999,404,-.95118E-3,-.139954E-2,0
STARLINK-38046,2026-150H,2026-07-19T20:00:01.999008,15.75183065,.0001212,97.2848,39.4769,101.8285,295.2984,0,U,69746,999,404,-.42535E-3,-.63087E-3,0
STARLINK-38067,2026-150J,2026-07-19T19:00:49.852224,15.75230653,.0001138,97.2853,39.3622,88.8236,271.3160,0,U,69747,999,404,.10643E-2,.161953E-2,0
STARLINK-37988,2026-150K,2026-07-19T12:52:22.274688,15.75206161,.00008222,97.2845,39.0968,62.1749,297.9599,0,U,69748,999,400,.10136251E-2,.15392E-2,0
