STARLINK-37956          
1 69711U 26147H   26200.83335647 -.02652481  00000+0 -19603-1 0  9992
2 69711  97.2844 237.4994 0001670  94.6699 174.0235 15.76134997  4485
STARLINK-38043          
1 69712U 26147J   26200.53092840  .00211078  00000+0  10719-2 0  9994
2 69712  97.2832 237.1826 0000708  37.4260 322.7058 15.80904411  4547
STARLINK-38020          
1 69713U 26147K   26200.83335647 -.02482977  00000+0 -18188-1 0  9992
2 69713  97.2842 237.5038 0001661  88.4743 190.1037 15.76694631  4481
STARLINK-38059          
1 69714U 26147L   26200.83335647 -.02469624  00000+0 -19607-1 0  9994
2 69714  97.2848 237.5045 0001919  91.9852 185.3106 15.74847092  4484
STARLINK-38061          
1 69715U 26147M   26200.52867195  .00166763  00000+0  85280-3 0  9995
2 69715  97.2822 237.1863 0000273  37.1076 323.0211 15.80867548  4543
STARLINK-38060          
1 69716U 26147N   26200.84443168  .00192334  00000+0  97973-3 0  9996
2 69716  97.2823 237.5224 0001843  73.2060 286.9410 15.80885829  4593
STARLINK-38040          
1 69717U 26147P   26200.84370558  .00243845  00000+0  12370-2 0  9990
2 69717  97.2817 237.5233 0005469  55.5484 304.6300 15.80828561  4594
STARLINK-37989          
1 69718U 26147Q   26200.83335647 -.02663565  00000+0 -19182-1 0  9996
2 69718  97.2846 237.5130 0001728  94.4706 205.8473 15.76731832  4576
STARLINK-38039          
1 69719U 26147R   26200.84217713  .00192194  00000+0  97981-3 0  9997
2 69719  97.2834 237.5245 0001661  79.1755 280.9700 15.80868607  4596
STARLINK-38003          
1 69720U 26147S   26200.52491776  .00212614  00000+0  10796-2 0  9995
2 69720  97.2827 237.1906 0000799  66.6156 293.5196 15.80903130  4542
STARLINK-38014          
1 69721U 26147T   26200.58746770  .00213393  00000+0  10874-2 0  9991
2 69721  97.2834 237.2595 0001166  77.6466 282.4933 15.80824352  4556
STARLINK-37915          
1 69722U 26147U   26200.58671634  .00231170  00000+0  11755-2 0  9990
2 69722  97.2837 237.2604 0001351  84.7068 275.4354 15.80823285  4557
STARLINK-38007          
1 69723U 26147V   26200.52580455  .00276666  00000+0  13921-2 0  9991
2 69723  97.2820 237.1890 0000432 335.7407  24.3841 15.80936762  4547
STARLINK-38008          
1 69724U 26147W   26200.58521133  .00209858  00000+0  10699-2 0  9994
2 69724  97.2835 237.2635 0000915  78.4579 281.6792 15.80821510  4557
STARLINK-38021          
1 69725U 26147X   26200.83766794  .00212512  00000+0  10795-2 0  9995
2 69725  97.2812 237.5315 0001658  74.8479 285.2972 15.80895260  4592
STARLINK-38015          
1 69726U 26147Y   26200.84525684  .00092016  00000+0  61052-3 0  9996
2 69726  97.2856 237.5210 0001104  77.5045 282.6343 15.75214566  4591
STARLINK-38010          
1 69727U 26147Z   26200.55867081  .00117732  00000+0  77807-3 0  9993
2 69727  97.2826 237.1463 0000315 126.2430 233.8864 15.75228552  4549
SXM-11                  
1 69728U 26148A   26200.73897111  .00000007  00000+0  00000+0 0  9995
2 69728   0.0995 264.9649 0002054 185.6525 352.4031  1.00270480   369
HAIYANG-2E              
1 69737U 26149A   26200.72896947 -.00000045  00000+0 -63069-6 0  9996
2 69737  99.3444 207.5922 0001615  88.2436 271.8901 13.79314794  2444
CZ-4B R/B               
1 69738U 26149B   26200.66922192  .00000030  00000+0  27774-4 0  9995
2 69738  99.3218 209.0075 0197947 317.1762  41.4142 14.30068580  2771
STARLINK-38033          
1 69739U 26150A   26200.51564931  .00105250  00000+0  54288-3 0  9994
2 69739  97.2846  39.1269 0000437  19.8327 340.2958 15.80845988  4007
STARLINK-38076          
1 69740U 26150B   26200.80388852  .00169153  00000+0  11106-2 0  9997
2 69740  97.2845  39.3452 0001743  94.2559 265.8905 15.75232556  4042
STARLINK-38074          
1 69741U 26150C   26200.83335647 -.00098010  00000+0 -66294-3 0  9999
2 69741  97.2848  39.4547 0000975  98.7794 248.3239 15.75220278  4042
STARLINK-38041          
1 69742U 26150D   26200.83335647 -.00053931  00000+0 -36311-3 0  9990
2 69742  97.2857  39.4322 0001346  93.2135 199.9052 15.75182306  4049
STARLINK-38087          
1 69743U 26150E   26200.83335647 -.00123197  00000+0 -83547-3 0  9996
2 69743  97.2849  39.4496 0001025  99.9049 235.2005 15.75234047  4046
STARLINK-38078          
1 69744U 26150F   26200.82731731  .00196028  00000+0  99889-3 0  9997
2 69744  97.2839  39.4675 0001714  90.8713 269.2752 15.80868823  4056
STARLINK-38047          
1 69745U 26150G   26200.83335647 -.00139954  00000+0 -95118-3 0  9993
2 69745  97.2858  39.4357 0000606  91.1007 212.0178 15.75232683  4044
STARLINK-38046          
1 69746U 26150H   26200.83335647 -.00063087  00000+0 -42535-3 0  9992
2 69746  97.2848  39.4769 0001212 101.8285 295.2984 15.75183065  4049
STARLINK-38067          
1 69747U 26150J   26200.79224366  .00161953  00000+0  10643-2 0  9996
2 69747  97.2853  39.3622 0001138  88.8236 271.3160 15.75230653  4047
STARLINK-37988          
1 69748U 26150K   26200.53636892  .00153920  00000+0  10136-2 0  9992
2 69748  97.2845  39.0968 0000822  62.1749 297.9599 15.75206161  4005
